[
    {
        "OBJECT_NAME": "COSMOS 2084",
        "OBJECT_ID": "1990-055A",
        "EPOCH": "2026-06-13T20:59:21.964128",
        "MEAN_MOTION": 15.06103747,
        "ECCENTRICITY": 0.0005513,
        "INCLINATION": 62.791,
        "RA_OF_ASC_NODE": 7.3977,
        "ARG_OF_PERICENTER": 273.4379,
        "MEAN_ANOMALY": 86.6091,
        "EPHEMERIS_TYPE": 0,
        "CLASSIFICATION_TYPE": "U",
        "NORAD_CAT_ID": 20663,
        "ELEMENT_SET_NO": 999,
        "REV_AT_EPOCH": 95080,
        "BSTAR": 0.00015291,
        "MEAN_MOTION_DOT": 2.045e-05,
        "MEAN_MOTION_DDOT": 0
    },
    {
        "OBJECT_NAME": "SL-6 R/B(2)",
        "OBJECT_ID": "1990-055D",
        "EPOCH": "2026-06-13T17:23:55.286880",
        "MEAN_MOTION": 15.03993046,
        "ECCENTRICITY": 0.0040064,
        "INCLINATION": 62.7824,
        "RA_OF_ASC_NODE": 287.1581,
        "ARG_OF_PERICENTER": 4.6309,
        "MEAN_ANOMALY": 355.5153,
        "EPHEMERIS_TYPE": 0,
        "CLASSIFICATION_TYPE": "U",
        "NORAD_CAT_ID": 20666,
        "ELEMENT_SET_NO": 999,
        "REV_AT_EPOCH": 95263,
        "BSTAR": 0.0001237,
        "MEAN_MOTION_DOT": 1.539e-05,
        "MEAN_MOTION_DDOT": 0
    },
    {
        "OBJECT_NAME": "SL-8 R/B",
        "OBJECT_ID": "1990-078B",
        "EPOCH": "2026-06-13T16:59:56.860800",
        "MEAN_MOTION": 14.92184562,
        "ECCENTRICITY": 0.0351715,
        "INCLINATION": 82.9003,
        "RA_OF_ASC_NODE": 164.788,
        "ARG_OF_PERICENTER": 50.1979,
        "MEAN_ANOMALY": 312.9645,
        "EPHEMERIS_TYPE": 0,
        "CLASSIFICATION_TYPE": "U",
        "NORAD_CAT_ID": 20775,
        "ELEMENT_SET_NO": 999,
        "REV_AT_EPOCH": 82360,
        "BSTAR": 0.00054632,
        "MEAN_MOTION_DOT": 0.00019398,
        "MEAN_MOTION_DDOT": 0
    },
    {
        "OBJECT_NAME": "SL-8 R/B",
        "OBJECT_ID": "1991-006B",
        "EPOCH": "2026-06-13T20:49:18.664032",
        "MEAN_MOTION": 13.775056,
        "ECCENTRICITY": 0.0023545,
        "INCLINATION": 82.9424,
        "RA_OF_ASC_NODE": 98.5032,
        "ARG_OF_PERICENTER": 123.3884,
        "MEAN_ANOMALY": 299.0111,
        "EPHEMERIS_TYPE": 0,
        "CLASSIFICATION_TYPE": "U",
        "NORAD_CAT_ID": 21088,
        "ELEMENT_SET_NO": 999,
        "REV_AT_EPOCH": 77731,
        "BSTAR": 1.2758e-05,
        "MEAN_MOTION_DOT": 2.8e-07,
        "MEAN_MOTION_DDOT": 0
    },
    {
        "OBJECT_NAME": "OKEAN-3",
        "OBJECT_ID": "1991-039A",
        "EPOCH": "2026-06-13T17:57:50.616864",
        "MEAN_MOTION": 15.05308913,
        "ECCENTRICITY": 0.0014367,
        "INCLINATION": 82.5158,
        "RA_OF_ASC_NODE": 243.7154,
        "ARG_OF_PERICENTER": 10.8186,
        "MEAN_ANOMALY": 349.3347,
        "EPHEMERIS_TYPE": 0,
        "CLASSIFICATION_TYPE": "U",
        "NORAD_CAT_ID": 21397,
        "ELEMENT_SET_NO": 999,
        "REV_AT_EPOCH": 87948,
        "BSTAR": 0.00016486,
        "MEAN_MOTION_DOT": 2.391e-05,
        "MEAN_MOTION_DDOT": 0
    },
    {
        "OBJECT_NAME": "COSMOS 2151",
        "OBJECT_ID": "1991-042A",
        "EPOCH": "2026-06-13T19:00:25.135776",
        "MEAN_MOTION": 15.00429295,
        "ECCENTRICITY": 0.0013825,
        "INCLINATION": 82.496,
        "RA_OF_ASC_NODE": 350.9579,
        "ARG_OF_PERICENTER": 94.1505,
        "MEAN_ANOMALY": 266.13,
        "EPHEMERIS_TYPE": 0,
        "CLASSIFICATION_TYPE": "U",
        "NORAD_CAT_ID": 21422,
        "ELEMENT_SET_NO": 999,
        "REV_AT_EPOCH": 87760,
        "BSTAR": 0.00013169,
        "MEAN_MOTION_DOT": 1.685e-05,
        "MEAN_MOTION_DDOT": 0
    },
    {
        "OBJECT_NAME": "SL-14 R/B",
        "OBJECT_ID": "1991-042B",
        "EPOCH": "2026-06-13T20:15:50.105088",
        "MEAN_MOTION": 14.81900606,
        "ECCENTRICITY": 0.0015487,
        "INCLINATION": 82.4925,
        "RA_OF_ASC_NODE": 130.0304,
        "ARG_OF_PERICENTER": 286.9696,
        "MEAN_ANOMALY": 72.982,
        "EPHEMERIS_TYPE": 0,
        "CLASSIFICATION_TYPE": "U",
        "NORAD_CAT_ID": 21423,
        "ELEMENT_SET_NO": 999,
        "REV_AT_EPOCH": 86731,
        "BSTAR": 4.0377e-05,
        "MEAN_MOTION_DOT": 3.43e-06,
        "MEAN_MOTION_DDOT": 0
    },
    {
        "OBJECT_NAME": "ERS-1",
        "OBJECT_ID": "1991-050A",
        "EPOCH": "2026-06-13T16:32:47.177952",
        "MEAN_MOTION": 14.39515955,
        "ECCENTRICITY": 0.0030705,
        "INCLINATION": 98.7797,
        "RA_OF_ASC_NODE": 185.3019,
        "ARG_OF_PERICENTER": 277.8245,
        "MEAN_ANOMALY": 81.9457,
        "EPHEMERIS_TYPE": 0,
        "CLASSIFICATION_TYPE": "U",
        "NORAD_CAT_ID": 21574,
        "ELEMENT_SET_NO": 999,
        "REV_AT_EPOCH": 82954,
        "BSTAR": 0.00012368,
        "MEAN_MOTION_DOT": 3.41e-06,
        "MEAN_MOTION_DDOT": 0
    },
    {
        "OBJECT_NAME": "ARIANE 40 R/B",
        "OBJECT_ID": "1991-050F",
        "EPOCH": "2026-06-13T17:17:37.642848",
        "MEAN_MOTION": 14.42955209,
        "ECCENTRICITY": 0.0004119,
        "INCLINATION": 98.1877,
        "RA_OF_ASC_NODE": 213.2724,
        "ARG_OF_PERICENTER": 128.7489,
        "MEAN_ANOMALY": 231.4071,
        "EPHEMERIS_TYPE": 0,
        "CLASSIFICATION_TYPE": "U",
        "NORAD_CAT_ID": 21610,
        "ELEMENT_SET_NO": 999,
        "REV_AT_EPOCH": 83284,
        "BSTAR": 9.1359e-05,
        "MEAN_MOTION_DOT": 2.64e-06,
        "MEAN_MOTION_DDOT": 0
    },
    {
        "OBJECT_NAME": "INTERCOSMOS 25",
        "OBJECT_ID": "1991-086A",
        "EPOCH": "2026-06-13T11:31:32.973600",
        "MEAN_MOTION": 12.12191203,
        "ECCENTRICITY": 0.14841528,
        "INCLINATION": 82.6052,
        "RA_OF_ASC_NODE": 252.0532,
        "ARG_OF_PERICENTER": 270.3971,
        "MEAN_ANOMALY": 72.7791,
        "EPHEMERIS_TYPE": 0,
        "CLASSIFICATION_TYPE": "U",
        "NORAD_CAT_ID": 21819,
        "ELEMENT_SET_NO": 999,
        "REV_AT_EPOCH": 50829,
        "BSTAR": 0.00011074759,
        "MEAN_MOTION_DOT": 5.55e-06,
        "MEAN_MOTION_DDOT": 0
    },
    {
        "OBJECT_NAME": "SL-8 R/B",
        "OBJECT_ID": "1992-008B",
        "EPOCH": "2026-06-13T21:01:55.781184",
        "MEAN_MOTION": 13.75976063,
        "ECCENTRICITY": 0.0033641,
        "INCLINATION": 82.9264,
        "RA_OF_ASC_NODE": 196.2493,
        "ARG_OF_PERICENTER": 224.1876,
        "MEAN_ANOMALY": 309.551,
        "EPHEMERIS_TYPE": 0,
        "CLASSIFICATION_TYPE": "U",
        "NORAD_CAT_ID": 21876,
        "ELEMENT_SET_NO": 999,
        "REV_AT_EPOCH": 72264,
        "BSTAR": 0.00013287,
        "MEAN_MOTION_DOT": 1.44e-06,
        "MEAN_MOTION_DDOT": 0
    },
    {
        "OBJECT_NAME": "SL-8 R/B",
        "OBJECT_ID": "1992-020B",
        "EPOCH": "2026-06-13T20:30:00.179136",
        "MEAN_MOTION": 13.75548487,
        "ECCENTRICITY": 0.0029932,
        "INCLINATION": 82.9306,
        "RA_OF_ASC_NODE": 82.3329,
        "ARG_OF_PERICENTER": 31.6551,
        "MEAN_ANOMALY": 32.6053,
        "EPHEMERIS_TYPE": 0,
        "CLASSIFICATION_TYPE": "U",
        "NORAD_CAT_ID": 21938,
        "ELEMENT_SET_NO": 999,
        "REV_AT_EPOCH": 71435,
        "BSTAR": 3.3705e-05,
        "MEAN_MOTION_DOT": 4.8e-07,
        "MEAN_MOTION_DDOT": 0
    },
    {
        "OBJECT_NAME": "USA 81",
        "OBJECT_ID": "1992-023A",
        "EPOCH": "2026-06-13T20:26:43.533600",
        "MEAN_MOTION": 14.32397417,
        "ECCENTRICITY": 0.0002772,
        "INCLINATION": 85.0077,
        "RA_OF_ASC_NODE": 75.9324,
        "ARG_OF_PERICENTER": 87.6389,
        "MEAN_ANOMALY": 272.5121,
        "EPHEMERIS_TYPE": 0,
        "CLASSIFICATION_TYPE": "U",
        "NORAD_CAT_ID": 21949,
        "ELEMENT_SET_NO": 999,
        "REV_AT_EPOCH": 10855,
        "BSTAR": 5.0001e-05,
        "MEAN_MOTION_DOT": 1.55e-06,
        "MEAN_MOTION_DDOT": 0
    }
]